$$SOE
2460728.500000000, A.D. 2025-Feb-22 00:00:00.0000, 3.549517343016842E+06, 3.510038265176850E+08, 8.714139139232397E+06,
2460735.500000000, A.D. 2025-Mar-01 00:00:00.0000, -7.761083946025524E+06, 3.523679325940953E+08, 9.295794919126824E+06,
2460742.500000000, A.D. 2025-Mar-08 00:00:00.0000, -1.906305061554714E+07, 3.533419495672477E+08, 9.867147324537024E+06,
2460749.500000000, A.D. 2025-Mar-15 00:00:00.0000, -3.034411095487853E+07, 3.539294796707501E+08, 1.042769374313559E+07,
2460756.500000000, A.D. 2025-Mar-22 00:00:00.0000, -4.159230204612677E+07, 3.541343996628988E+08, 1.097695362808259E+07,
2460763.500000000, A.D. 2025-Mar-29 00:00:00.0000, -5.279596654834256E+07, 3.539608414857121E+08, 1.151446779151700E+07,
2460770.500000000, A.D. 2025-Apr-05 00:00:00.0000, -6.394374725925703E+07, 3.534131749226782E+08, 1.203979761813524E+07,
2460777.500000000, A.D. 2025-Apr-12 00:00:00.0000, -7.502458146271984E+07, 3.524959923261804E+08, 1.255252438658415E+07,
2460784.500000000, A.D. 2025-Apr-19 00:00:00.0000, -8.602769532621917E+07, 3.512140944931456E+08, 1.305224864637806E+07,
2460791.500000000, A.D. 2025-Apr-26 00:00:00.0000, -9.694259814849678E+07, 3.495724774462503E+08, 1.353858961115524E+07,
2460798.500000000, A.D. 2025-May-03 00:00:00.0000, -1.077590764083665E+08, 3.475763201005940E+08, 1.401118456138828E+07,
2460805.500000000, A.D. 2025-May-10 00:00:00.0000, -1.184671876444930E+08, 3.452309727850081E+08, 1.446968825631826E+07,
2460812.500000000, A.D. 2025-May-17 00:00:00.0000, -1.290572541819335E+08, 3.425419465373095E+08, 1.491377234982839E+07,
2460819.500000000, A.D. 2025-May-24 00:00:00.0000, -1.395198565788141E+08, 3.395149030794057E+08, 1.534312479110254E+07,
2460826.500000000, A.D. 2025-May-31 00:00:00.0000, -1.498458264183027E+08, 3.361556457440131E+08, 1.575744919824800E+07,
2460833.500000000, A.D. 2025-Jun-07 00:00:00.0000, -1.600262388866433E+08, 3.324701125208458E+08, 1.615646434105214E+07,
2460840.500000000, A.D. 2025-Jun-14 00:00:00.0000, -1.700524075362274E+08, 3.284643705223837E+08, 1.653990389586449E+07,
2460847.500000000, A.D. 2025-Jun-21 00:00:00.0000, -1.799158800423407E+08, 3.241446085600365E+08, 1.690751609408645E+07,
2460854.500000000, A.D. 2025-Jun-28 00:00:00.0000, -1.896084318532414E+08, 3.195171295535653E+08, 1.725906312231223E+07,
2460861.500000000, A.D. 2025-Jul-05 00:00:00.0000, -1.991220592799141E+08, 3.145883449001608E+08, 1.759432058995976E+07,
2460868.500000000, A.D. 2025-Jul-12 00:00:00.0000, -2.084489732373810E+08, 3.093647699698009E+08, 1.791307710794845E+07,
2460875.500000000, A.D. 2025-Jul-19 00:00:00.0000, -2.175815934655263E+08, 3.038530201202856E+08, 1.821513391422701E+07,
2460882.500000000, A.D. 2025-Jul-26 00:00:00.0000, -2.265125430365037E+08, 2.980598071449347E+08, 1.850030452247247E+07,
2460889.500000000, A.D. 2025-Aug-02 00:00:00.0000, -2.352346430989542E+08, 2.919919361462997E+08, 1.876841438989209E+07,
2460896.500000000, A.D. 2025-Aug-09 00:00:00.0000, -2.437409078495814E+08, 2.856563027946486E+08, 1.901930060092166E+07,
2460903.500000000, A.D. 2025-Aug-16 00:00:00.0000, -2.520245396676193E+08, 2.790598908827232E+08, 1.925281155473073E+07,
2460910.500000000, A.D. 2025-Aug-23 00:00:00.0000, -2.600789241307960E+08, 2.722097701690107E+08, 1.946880663119186E+07,
2460917.500000000, A.D. 2025-Aug-30 00:00:00.0000, -2.678976245945549E+08, 2.651130952001468E+08, 1.966715586366804E+07,
2460924.500000000, A.D. 2025-Sep-06 00:00:00.0000, -2.754743777646018E+08, 2.577771060913910E+08, 1.984773983063488E+07,
2460931.500000000, A.D. 2025-Sep-13 00:00:00.0000, -2.828030919451667E+08, 2.502091287656199E+08, 2.001044971665505E+07,
2460938.500000000, A.D. 2025-Sep-20 00:00:00.0000, -2.898778446944843E+08, 2.424165729885662E+08, 2.015518710827871E+07,
2460945.500000000, A.D. 2025-Sep-27 00:00:00.0000, -2.966928788345746E+08, 2.344069312892882E+08, 2.028186368226485E+07,
2460952.500000000, A.D. 2025-Oct-04 00:00:00.0000, -3.032425988431405E+08, 2.261877792891569E+08, 2.039040101519327E+07,
2460959.500000000, A.D. 2025-Oct-11 00:00:00.0000, -3.095215680067361E+08, 2.177667764838957E+08, 2.048073047147395E+07,
2460966.500000000, A.D. 2025-Oct-18 00:00:00.0000, -3.155245060523414E+08, 2.091516671871434E+08, 2.055279312096347E+07,
2460973.500000000, A.D. 2025-Oct-25 00:00:00.0000, -3.212462871205478E+08, 2.003502816257966E+08, 2.060653967395777E+07,
2460980.500000000, A.D. 2025-Nov-01 00:00:00.0000, -3.266819380490409E+08, 1.913705371823033E+08, 2.064193043110669E+07,
2460987.500000000, A.D. 2025-Nov-08 00:00:00.0000, -3.318266369446588E+08, 1.822204397363822E+08, 2.065893524265886E+07,
2460994.500000000, A.D. 2025-Nov-15 00:00:00.0000, -3.366757119097217E+08, 1.729080850363648E+08, 2.065753345887811E+07,
2461001.500000000, A.D. 2025-Nov-22 00:00:00.0000, -3.412246395307559E+08, 1.634416603110167E+08, 2.063771385271318E+07,
2461008.500000000, A.D. 2025-Nov-29 00:00:00.0000, -3.454690432910175E+08, 1.538294472461746E+08, 2.059947462136474E+07,
2461015.500000000, A.D. 2025-Dec-06 00:00:00.0000, -3.494046941935913E+08, 1.440798261777342E+08, 2.054282366428524E+07,
2461022.500000000, A.D. 2025-Dec-13 00:00:00.0000, -3.530275131725671E+08, 1.342012781197164E+08, 2.046777882230514E+07,
2461029.500000000, A.D. 2025-Dec-20 00:00:00.0000, -3.563335718049792E+08, 1.242023856389262E+08, 2.037436784117644E+07,
2461036.500000000, A.D. 2025-Dec-27 00:00:00.0000, -3.593190924027489E+08, 1.140918351499676E+08, 2.026262836978009E+07,
2461043.500000000, A.D. 2026-Jan-03 00:00:00.0000, -3.619804489574864E+08, 1.038784199982547E+08, 2.013260807654959E+07,
2461050.500000000, A.D. 2026-Jan-10 00:00:00.0000, -3.643141688434159E+08, 9.357104363923220E+07, 1.998436481881981E+07,
2461057.500000000, A.D. 2026-Jan-17 00:00:00.0000, -3.663169350585725E+08, 8.317872280878682E+07, 1.981796683665580E+07,
2461064.500000000, A.D. 2026-Jan-24 00:00:00.0000, -3.679855889391351E+08, 7.271059069217303E+07, 1.963349296624748E+07,
2461071.500000000, A.D. 2026-Jan-31 00:00:00.0000, -3.693171333374860E+08, 6.217590006755186E+07, 1.943103287050910E+07,
2461078.500000000, A.D. 2026-Feb-07 00:00:00.0000, -3.703087362176595E+08, 5.158402634941970E+07, 1.921068727698910E+07,
2461085.500000000, A.D. 2026-Feb-14 00:00:00.0000, -3.709577344310717E+08, 4.094447049825843E+07, 1.897256819908791E+07,
2461092.500000000, A.D. 2026-Feb-21 00:00:00.0000, -3.712616373012517E+08, 3.026686235376278E+07, 1.871679915265676E+07,
2461099.500000000, A.D. 2026-Feb-28 00:00:00.0000, -3.712181311190616E+08, 1.956096552335912E+07, 1.844351556211199E+07,
2461106.500000000, A.D. 2026-Mar-07 00:00:00.0000, -3.708250866263492E+08, 8.836681852031810E+06, 1.815286538577219E+07,
2461113.500000000, A.D. 2026-Mar-14 00:00:00.0000, -3.700805667339979E+08, -1.895946882726875E+06, 1.784500951552900E+07,
2461120.500000000, A.D. 2026-Mar-21 00:00:00.0000, -3.689828327072240E+08, -1.262673717614668E+07, 1.752012202447025E+07,
2461127.500000000, A.D. 2026-Mar-28 00:00:00.0000, -3.675303508383095E+08, -2.334536090274393E+07, 1.717839053063976E+07,
2461134.500000000, A.D. 2026-Apr-04 00:00:00.0000, -3.657218002258318E+08, -3.404134232636271E+07, 1.682001665294274E+07,
2461141.500000000, A.D. 2026-Apr-11 00:00:00.0000, -3.635560814060447E+08, -4.470405541226397E+07, 1.644521650453066E+07,
2461148.500000000, A.D. 2026-Apr-18 00:00:00.0000, -3.610323256967995E+08, -5.532272148879117E+07, 1.605422120875632E+07,
2461155.500000000, A.D. 2026-Apr-25 00:00:00.0000, -3.581499052278684E+08, -6.588640728819751E+07, 1.564727743508885E+07,
2461162.500000000, A.D. 2026-May-02 00:00:00.0000, -3.549084436470949E+08, -7.638402344358543E+07, 1.522464795008869E+07,
2461169.500000000, A.D. 2026-May-09 00:00:00.0000, -3.513078273972523E+08, -8.680432355826765E+07, 1.478661216670845E+07,
2461176.500000000, A.D. 2026-May-16 00:00:00.0000, -3.473482172031144E+08, -9.713590376256575E+07, 1.433346666831216E+07,
2461183.500000000, A.D. 2026-May-23 00:00:00.0000, -3.430300597312073E+08, -1.073672017932988E+08, 1.386552578553578E+07,
2461190.500000000, A.D. 2026-May-30 00:00:00.0000, -3.383541015118425E+08, -1.174864953400230E+08, 1.338312244155051E+07,
2461197.500000000, A.D. 2026-Jun-06 00:00:00.0000, -3.333214054520437E+08, -1.274819030026833E+08, 1.288660902569936E+07,
2461204.500000000, A.D. 2026-Jun-13 00:00:00.0000, -3.279333662856783E+08, -1.373413877372551E+08, 1.237635797389818E+07,
2461211.500000000, A.D. 2026-Jun-20 00:00:00.0000, -3.221917254680905E+08, -1.470527599397061E+08, 1.185276233917192E+07,
2461218.500000000, A.D. 2026-Jun-27 00:00:00.0000, -3.160985872101429E+08, -1.566036805882275E+08, 1.131623647797517E+07,
2461225.500000000, A.D. 2026-Jul-04 00:00:00.0000, -3.096564356407735E+08, -1.659816653057258E+08, 1.076721678583314E+07,
2461232.500000000, A.D. 2026-Jul-11 00:00:00.0000, -3.028681528263012E+08, -1.751740895689598E+08, 1.020616244461755E+07,
2461239.500000000, A.D. 2026-Jul-18 00:00:00.0000, -2.957370375279254E+08, -1.841681951417581E+08, 9.633556171095558E+06,
2461246.500000000, A.D. 2026-Jul-25 00:00:00.0000, -2.882668246415144E+08, -1.929510978435882E+08, 9.049904960291706E+06,
2461253.500000000, A.D. 2026-Aug-01 00:00:00.0000, -2.804617052375482E+08, -2.015097968238405E+08, 8.455740810395963E+06,
2461260.500000000, A.D. 2026-Aug-08 00:00:00.0000, -2.723263469469330E+08, -2.098311855027932E+08, 7.851621401226714E+06,
2461267.500000000, A.D. 2026-Aug-15 00:00:00.0000, -2.638659142260951E+08, -2.179020638542812E+08, 7.238130719109133E+06,
2461274.500000000, A.D. 2026-Aug-22 00:00:00.0000, -2.550860891933768E+08, -2.257091509355045E+08, 6.615879791135773E+06,
2461281.500000000, A.D. 2026-Aug-29 00:00:00.0000, -2.459930952378495E+08, -2.332390991676883E+08, 5.985507618890718E+06,
2461288.500000000, A.D. 2026-Sep-05 00:00:00.0000, -2.365937211632888E+08, -2.404785133736747E+08, 5.347681872889951E+06,
2461295.500000000, A.D. 2026-Sep-12 00:00:00.0000, -2.268953432941957E+08, -2.474139722179721E+08, 4.703099317295581E+06,
$$EOE